[{"OBJECT_NAME":"SDA_1670","OBJECT_ID":"2025-230G","EPOCH":"2026-03-09T17:23:00.469536","MEAN_MOTION":13.84837821,"ECCENTRICITY":0.00038733,"INCLINATION":81.2981,"RA_OF_ASC_NODE":303.9295,"ARG_OF_PERICENTER":76.4422,"MEAN_ANOMALY":283.7167,"EPHEMERIS_TYPE":0,"CLASSIFICATION_TYPE":"U","NORAD_CAT_ID":65980,"ELEMENT_SET_NO":999,"REV_AT_EPOCH":2004,"BSTAR":9.0952862e-5,"MEAN_MOTION_DOT":1.14e-6,"MEAN_MOTION_DDOT":0},{"OBJECT_NAME":"SDA_1682","OBJECT_ID":"2025-230U","EPOCH":"2026-03-09T17:20:30.180192","MEAN_MOTION":13.84602017,"ECCENTRICITY":0.00025922,"INCLINATION":81.3027,"RA_OF_ASC_NODE":304.0041,"ARG_OF_PERICENTER":76.4793,"MEAN_ANOMALY":283.6653,"EPHEMERIS_TYPE":0,"CLASSIFICATION_TYPE":"U","NORAD_CAT_ID":65992,"ELEMENT_SET_NO":999,"REV_AT_EPOCH":2004,"BSTAR":-0.02644498,"MEAN_MOTION_DOT":-0.0002955,"MEAN_MOTION_DDOT":0}]
